OBJECT_NAME,OBJECT_ID,EPOCH,MEAN_MOTION,ECCENTRICITY,INCLINATION,RA_OF_ASC_NODE,ARG_OF_PERICENTER,MEAN_ANOMALY,EPHEMERIS_TYPE,CLASSIFICATION_TYPE,NORAD_CAT_ID,ELEMENT_SET_NO,REV_AT_EPOCH,BSTAR,MEAN_MOTION_DOT,MEAN_MOTION_DDOT
FENGYUN 3D,2017-072A,2026-07-04T21:46:03.441792,14.19743540,.00019957,99.0139,160.6503,33.3383,326.7918,0,U,43010,999,44750,.1193125E-3,.206E-5,0
NOAA 20 (JPSS-1),2017-073A,2026-07-04T20:01:29.512704,14.19515164,.00009678,98.7772,125.1403,132.9183,227.2074,0,U,43013,999,44697,.61838635E-4,.86E-6,0
GOES 17,2018-022A,2026-07-04T22:00:59.256000,1.00271046,.00006894,0.9793,85.4355,54.3809,23.8532,0,U,43226,999,3060,0,-.17E-5,0
SENTINEL-3B,2018-039A,2026-07-04T10:35:58.954848,14.26739817,.00008916,98.6242,252.7259,116.8484,243.2787,0,U,43437,999,42658,.7502834E-4,.138E-5,0
FENGYUN 2H,2018-050A,2026-07-05T00:22:06.356640,1.00269138,.00018597,3.0745,78.8719,121.7108,167.2353,0,U,43491,999,2961,0,-.117E-5,0
METOP-C,2018-087A,2026-07-04T14:16:03.288000,14.21517124,.00021813,98.6635,244.8793,107.2589,252.8828,0,U,43689,999,39730,.8566137E-4,.144E-5,0
GEO-KOMPSAT-2A,2018-100A,2026-07-02T19:57:00.763776,1.00268738,.00022559,0.0451,169.6912,284.8102,253.8622,0,U,43823,999,2778,0,-.333E-5,0
METEOR-M2 2,2019-038A,2026-07-04T22:43:12.765792,14.24370707,.00012542,98.9154,173.4949,21.9011,338.2221,0,U,44387,999,36382,.64679146E-4,.104E-5,0
ARKTIKA-M 1,2021-016A,2026-06-29T22:50:46.732128,2.00617895,.72928178,63.2520,55.7907,269.9910,14.5481,0,U,47719,999,3904,0,-.281E-5,0
FENGYUN 3E,2021-062A,2026-07-04T23:01:28.213248,14.19904719,.00026138,98.7494,189.1692,56.9325,303.2102,0,U,49008,999,25910,-.15021944E-3,-.363E-5,0
GOES 18,2022-021A,2026-07-04T12:15:38.875104,1.00270988,.0000592,0.0415,221.7763,303.1764,164.4734,0,U,51850,999,676,0,.109E-5,0
NOAA 21 (JPSS-2),2022-150A,2026-07-04T19:06:44.586432,14.19539925,.00025375,98.7060,124.2897,122.5556,237.5865,0,U,54234,999,18904,.70281559E-4,.105E-5,0
METEOSAT-12 (MTG-I1),2022-170C,2026-07-04T20:43:48.623808,1.00276424,.00034969,0.7575,25.6360,75.7376,132.2410,0,U,54743,999,1315,0,.7E-7,0
TIANMU-1 03,2023-039A,2026-07-04T23:04:24.487392,15.47816421,.0003401,97.5244,0.6326,53.1511,307.0050,0,U,55973,999,18358,.43064824E-3,.22304E-3,0
TIANMU-1 04,2023-039B,2026-07-04T22:39:14.027904,15.48432251,.00038696,97.5180,359.7698,48.1395,312.0185,0,U,55974,999,18359,.4275412E-3,.22624E-3,0
TIANMU-1 05,2023-039C,2026-07-04T22:37:57.310752,15.47740078,.00036418,97.5226,0.2219,72.7514,287.4134,0,U,55975,999,18356,.41517584E-3,.21441E-3,0
TIANMU-1 06,2023-039D,2026-07-04T22:45:43.534656,15.48330664,.00038483,97.5232,0.8813,67.0314,293.1342,0,U,55976,999,18359,.42399583E-3,.22356E-3,0
FENGYUN 3G,2023-055A,2026-07-04T19:12:51.599808,15.53439729,.00072663,49.9916,255.2163,10.0967,350.0145,0,U,56232,999,18274,.63992625E-3,.41154E-3,0
METEOR-M2 3,2023-091A,2026-07-04T22:40:55.406208,14.24048357,.00050676,98.6078,240.5593,113.2311,246.9402,0,U,57166,999,15704,.25504452E-4,.15E-6,0
TIANMU-1 07,2023-101A,2026-07-04T22:56:31.540704,15.30026105,.00042197,97.2577,236.2173,85.5582,274.6141,0,U,57399,999,16436,.3647599E-3,.10534E-3,0
TIANMU-1 08,2023-101B,2026-07-04T23:42:35.766144,15.30031703,.00053737,97.2566,236.0167,72.6753,287.5075,0,U,57400,999,16436,.34423771E-3,.9939E-4,0
TIANMU-1 09,2023-101C,2026-07-04T23:18:08.962848,15.30068564,.00048234,97.2524,235.4068,87.4809,272.6985,0,U,57401,999,16436,.36160594E-3,.10456E-3,0
TIANMU-1 10,2023-101D,2026-07-04T22:32:01.468032,15.30041444,.00062871,97.2604,236.4441,81.1293,279.0659,0,U,57402,999,16435,.36933765E-3,.10675E-3,0
FENGYUN 3F,2023-111A,2026-07-04T22:37:42.144960,14.19942269,.00014654,98.6829,255.6202,81.3252,278.8091,0,U,57490,999,15138,.58485988E-4,.81E-6,0
ARKTIKA-M 2,2023-198A,2026-06-29T17:20:14.637696,2.00610643,.69058771,63.2199,152.9641,267.3845,18.7575,0,U,58584,999,1857,0,.148E-5,0
TIANMU-1 11,2023-205A,2026-07-05T00:11:10.629024,15.27187630,.00070121,97.3441,207.2861,307.9839,52.0766,0,U,58645,999,14024,.32352498E-3,.8557E-4,0
TIANMU-1 12,2023-205B,2026-07-04T23:29:47.834304,15.27016496,.0005472,97.3430,207.0089,282.5594,77.5033,0,U,58646,999,14022,.31131567E-3,.8186E-4,0
TIANMU-1 13,2023-205C,2026-07-05T00:17:52.943712,15.27009278,.00050275,97.3458,207.3181,258.2446,101.8230,0,U,58647,999,14022,.33008765E-3,.8682E-4,0
TIANMU-1 14,2023-205D,2026-07-04T23:55:49.780416,15.27054140,.00057849,97.3394,206.4709,265.8854,94.1724,0,U,58648,999,14022,.3385937E-3,.8921E-4,0
TIANMU-1 19,2023-208A,2026-07-04T22:13:07.527648,15.31856838,.00037324,97.4520,302.3205,241.2784,118.8083,0,U,58660,999,14004,.42174372E-3,.12904E-3,0
