FENGYUN 3D              
1 43010U 17072A   26185.90698428  .00000206  00000+0  11931-3 0  9998
2 43010  99.0139 160.6503 0001995  33.3383 326.7918 14.19743540447503
NOAA 20 (JPSS-1)        
1 43013U 17073A   26185.83436936  .00000086  00000+0  61839-4 0  9997
2 43013  98.7772 125.1403 0000967 132.9183 227.2074 14.19515164446979
GOES 17                 
1 43226U 18022A   26185.91735250 -.00000170  00000+0  00000+0 0  9991
2 43226   0.9793  85.4355 0000689  54.3809  23.8532  1.00271046 30602
SENTINEL-3B             
1 43437U 18039A   26185.44165457  .00000138  00000+0  75028-4 0  9997
2 43437  98.6242 252.7259 0000891 116.8484 243.2787 14.26739817426582
FENGYUN 2H              
1 43491U 18050A   26186.01535135 -.00000117  00000+0  00000+0 0  9999
2 43491   3.0745  78.8719 0001859 121.7108 167.2353  1.00269138 29610
METOP-C                 
1 43689U 18087A   26185.59448250  .00000144  00000+0  85661-4 0  9991
2 43689  98.6635 244.8793 0002181 107.2589 252.8828 14.21517124397305
GEO-KOMPSAT-2A          
1 43823U 18100A   26183.83125884 -.00000333  00000+0  00000+0 0  9997
2 43823   0.0451 169.6912 0002255 284.8102 253.8622  1.00268738 27782
METEOR-M2 2             
1 44387U 19038A   26185.94667553  .00000104  00000+0  64679-4 0  9994
2 44387  98.9154 173.4949 0001254  21.9011 338.2221 14.24370707363825
ARKTIKA-M 1             
1 47719U 21016A   26180.95192977 -.00000281  00000+0  00000+0 0  9994
2 47719  63.2520  55.7907 7292817 269.9910  14.5481  2.00617895 39040
FENGYUN 3E              
1 49008U 21062A   26185.95935432 -.00000363  00000+0 -15022-3 0  9990
2 49008  98.7494 189.1692 0002613  56.9325 303.2102 14.19904719259105
GOES 18                 
1 51850U 22021A   26185.51086661  .00000109  00000+0  00000+0 0  9999
2 51850   0.0415 221.7763 0000592 303.1764 164.4734  1.00270988  6762
NOAA 21 (JPSS-2)        
1 54234U 22150A   26185.79634938  .00000105  00000+0  70282-4 0  9997
2 54234  98.7060 124.2897 0002537 122.5556 237.5865 14.19539925189042
METEOSAT-12 (MTG-I1)    
1 54743U 22170C   26185.86375722  .00000007  00000+0  00000+0 0  9992
2 54743   0.7575  25.6360 0003496  75.7376 132.2410  1.00276424 13157
TIANMU-1 03             
1 55973U 23039A   26185.96139453  .00022304  00000+0  43065-3 0  9999
2 55973  97.5244   0.6326 0003401  53.1511 307.0050 15.47816421183582
TIANMU-1 04             
1 55974U 23039B   26185.94391236  .00022624  00000+0  42754-3 0  9996
2 55974  97.5180 359.7698 0003869  48.1395 312.0185 15.48432251183596
TIANMU-1 05             
1 55975U 23039C   26185.94302443  .00021441  00000+0  41518-3 0  9992
2 55975  97.5226   0.2219 0003641  72.7514 287.4134 15.47740078183563
TIANMU-1 06             
1 55976U 23039D   26185.94842054  .00022356  00000+0  42400-3 0  9997
2 55976  97.5232   0.8813 0003848  67.0314 293.1342 15.48330664183596
FENGYUN 3G              
1 56232U 23055A   26185.80059722  .00041154  00000+0  63993-3 0  9995
2 56232  49.9916 255.2163 0007266  10.0967 350.0145 15.53439729182744
METEOR-M2 3             
1 57166U 23091A   26185.94508572  .00000015  00000+0  25504-4 0  9997
2 57166  98.6078 240.5593 0005067 113.2311 246.9402 14.24048357157045
TIANMU-1 07             
1 57399U 23101A   26185.95592061  .00010534  00000+0  36476-3 0  9990
2 57399  97.2577 236.2173 0004219  85.5582 274.6141 15.30026105164363
TIANMU-1 08             
1 57400U 23101B   26185.98791396  .00009939  00000+0  34424-3 0  9996
2 57400  97.2566 236.0167 0005373  72.6753 287.5075 15.30031703164363
TIANMU-1 09             
1 57401U 23101C   26185.97093707  .00010456  00000+0  36161-3 0  9993
2 57401  97.2524 235.4068 0004823  87.4809 272.6985 15.30068564164366
TIANMU-1 10             
1 57402U 23101D   26185.93890588  .00010675  00000+0  36934-3 0  9993
2 57402  97.2604 236.4441 0006287  81.1293 279.0659 15.30041444164352
FENGYUN 3F              
1 57490U 23111A   26185.94284890  .00000081  00000+0  58486-4 0  9992
2 57490  98.6829 255.6202 0001465  81.3252 278.8091 14.19942269151388
ARKTIKA-M 2             
1 58584U 23198A   26180.72239164  .00000148  00000+0  00000+0 0  9995
2 58584  63.2199 152.9641 6905877 267.3845  18.7575  2.00610643 18573
TIANMU-1 11             
1 58645U 23205A   26186.00776191  .00008557  00000+0  32352-3 0  9996
2 58645  97.3441 207.2861 0007012 307.9839  52.0766 15.27187630140240
TIANMU-1 12             
1 58646U 23205B   26185.97902586  .00008186  00000+0  31132-3 0  9994
2 58646  97.3430 207.0089 0005472 282.5594  77.5033 15.27016496140221
TIANMU-1 13             
1 58647U 23205C   26186.01241833  .00008682  00000+0  33009-3 0  9998
2 58647  97.3458 207.3181 0005027 258.2446 101.8230 15.27009278140220
TIANMU-1 14             
1 58648U 23205D   26185.99710394  .00008921  00000+0  33859-3 0  9997
2 58648  97.3394 206.4709 0005784 265.8854  94.1724 15.27054140140223
TIANMU-1 19             
1 58660U 23208A   26185.92578157  .00012904  00000+0  42174-3 0  9992
2 58660  97.4520 302.3205 0003732 241.2784 118.8083 15.31856838140048
